SALE TYPE,PROPERTY TYPE,ADDRESS,CITY,STATE,ZIP
PAST SALE,Condo/Co-op,1213 Vine St Unit F,Cincinnati,OH,45202
PAST SALE,Single Family Residential,1120 W Main St,Cincinnati,OH,45202
PAST SALE,Condo/Co-op,30 East Central Pkwy #802,Cincinnati,OH,45202
PAST SALE,Condo/Co-op,1202 Main St #9,Cincinnati,OH,45202
PAST SALE,Multi-Family (5+ Unit),1121 Walnut St,Cincinnati,OH,45202
PAST SALE,Condo/Co-op,1206 Main St #3,Cincinnati,OH,45202
PAST SALE,Condo/Co-op,1307 Republic St #1,Cincinnati,OH,45202
PAST SALE,Condo/Co-op,1420 Elm St Unit 1A,Cincinnati,OH,45202
PAST SALE,Condo/Co-op,1800 Race St #1802,Cincinnati,OH,45202
PAST SALE,Condo/Co-op,20 W 12th St Unit 203A,Cincinnati,OH,45202
PAST SALE,Other,130 Findlay St,Cincinnati,OH,45202
PAST SALE,Condo/Co-op,33 E Court St,Cincinnati,OH,45202
PAST SALE,Condo/Co-op,19 W Court St #4,Cincinnati,OH,45202
PAST SALE,Condo/Co-op,15 W Fifteenth St Unit B3,Cincinnati,OH,45202
PAST SALE,Condo/Co-op,15 E Court St #3,Cincinnati,OH,45202
PAST SALE,Condo/Co-op,18 E 4th St #801,Cincinnati,OH,45202
PAST SALE,Condo/Co-op,621 Main St Unit 5B,Cincinnati,OH,45202
PAST SALE,Multi-Family (5+ Unit),18 E 13th St,Cincinnati,OH,45202
PAST SALE,Condo/Co-op,1150 Vine St #42,Cincinnati,OH,45202
PAST SALE,Condo/Co-op,104 W 9th St Unit 4C,Cincinnati,OH,45202
PAST SALE,Condo/Co-op,111 E 13th St #2,Cincinnati,OH,45202
PAST SALE,Condo/Co-op,33 E Court St #304,Cincinnati,OH,45202
PAST SALE,Condo/Co-op,1220 Vine St #11,Cincinnati,OH,45202
PAST SALE,Condo/Co-op,33 E Court St #205,Cincinnati,OH,45202
PAST SALE,Condo/Co-op,26 E 6th St #803,Cincinnati,OH,45202
PAST SALE,Single Family Residential,1437 Pleasant St,Cincinnati,OH,45202
PAST SALE,Multi-Family (5+ Unit),3 W McMicken Ave,Cincinnati,OH,45202
PAST SALE,Condo/Co-op,24 W 15th St,Cincinnati,OH,45202
PAST SALE,Multi-Family (5+ Unit),1525 Republic St,Cincinnati,OH,45202
PAST SALE,Multi-Family (2-4 Unit),1415 Race St,Cincinnati,OH,45202
PAST SALE,Condo/Co-op,1501 Vine St #204,Cincinnati,OH,45202
PAST SALE,Condo/Co-op,1326 Vine St #1,Cincinnati,OH,45202
PAST SALE,Condo/Co-op,1421 Race St #2,Cincinnati,OH,45202
PAST SALE,Condo/Co-op,116 W Fifteenth St #303,Cincinnati,OH,45202
PAST SALE,Single Family Residential,1504 Race St,Cincinnati,OH,45202
PAST SALE,Condo/Co-op,1150 Vine St #34,Cincinnati,OH,45202
PAST SALE,Condo/Co-op,1326 Vine St #14,Cincinnati,OH,45202
PAST SALE,Condo/Co-op,1421 Race St #3,Cincinnati,OH,45202
PAST SALE,Condo/Co-op,1328 Republic St #101,Cincinnati,OH,45202
PAST SALE,Condo/Co-op,724 Main St #5,Cincinnati,OH,45202
PAST SALE,Condo/Co-op,14 W Fourteenth St #503,Cincinnati,OH,45202
PAST SALE,Condo/Co-op,1307 Republic St #3,Cincinnati,OH,45202
PAST SALE,Condo/Co-op,1 Mercer St #402,Cincinnati,OH,45202
PAST SALE,Condo/Co-op,1124 Race St Unit 101B,Cincinnati,OH,45202
PAST SALE,Condo/Co-op,104 W 9th St Unit 3C,Cincinnati,OH,45202
PAST SALE,Condo/Co-op,1126 Walnut St Unit 4A,Cincinnati,OH,45202
PAST SALE,Condo/Co-op,1126 Walnut Ave Unit 4B,Cincinnati,OH,45202
PAST SALE,Condo/Co-op,633 Main St,Cincinnati,OH,45202
PAST SALE,Condo/Co-op,1326 Vine St #4,Cincinnati,OH,45202
PAST SALE,Condo/Co-op,1150 Vine St #38,Cincinnati,OH,45202
PAST SALE,Condo/Co-op,1150 Vine St #33,Cincinnati,OH,45202
PAST SALE,Condo/Co-op,1523 Republic St #201,Cincinnati,OH,45202
PAST SALE,Condo/Co-op,915 Vine St #203,Cincinnati,OH,45202
PAST SALE,Condo/Co-op,1207 Republic St Unit 101B,Cincinnati,OH,45202
PAST SALE,Condo/Co-op,1150 Vine St #39,Cincinnati,OH,45202
PAST SALE,Condo/Co-op,15 W Fourth St,Cincinnati,OH,45202
PAST SALE,Condo/Co-op,27 Mercer St #2,Cincinnati,OH,45202
PAST SALE,Condo/Co-op,4 W 14th St #202,Cincinnati,OH,45202
PAST SALE,Single Family Residential,10 Mercer St,Cincinnati,OH,45202
PAST SALE,Condo/Co-op,417 Vine St #601,Cincinnati,OH,45202
PAST SALE,Condo/Co-op,1415 Vine St #301,Cincinnati,OH,45202
PAST SALE,Condo/Co-op,104 W Ninth St Unit 6A,Cincinnati,OH,45202
PAST SALE,Condo/Co-op,15 W 4th St #301,Cincinnati,OH,45202
PAST SALE,Condo/Co-op,33 E Court St #403,Cincinnati,OH,45202
PAST SALE,Condo/Co-op,33 E Court St #405,Cincinnati,OH,45202
PAST SALE,Condo/Co-op,1432 Race St #210,Cincinnati,OH,45202
PAST SALE,Condo/Co-op,112 E Thirteenth,Cincinnati,OH,45202
PAST SALE,Condo/Co-op,1 Mercer St #302,Cincinnati,OH,45202
PAST SALE,Condo/Co-op,15 W 4th St #302,Cincinnati,OH,45202
PAST SALE,Condo/Co-op,1508 Race St Unit 1R,Cincinnati,OH,45202
PAST SALE,Condo/Co-op,1428 Republic St #2,Cincinnati,OH,45202
PAST SALE,Condo/Co-op,1415 Vine St #205,Cincinnati,OH,45202
PAST SALE,Condo/Co-op,1406 Republic St #301,Cincinnati,OH,45202
PAST SALE,Condo/Co-op,1523 Republic St #302,Cincinnati,OH,45202
PAST SALE,Condo/Co-op,104 W Ninth St Unit 2A,Cincinnati,OH,45202
PAST SALE,Condo/Co-op,1406 Republic St #102,Cincinnati,OH,45202
PAST SALE,Condo/Co-op,11 E Court St #202,Cincinnati,OH,45202
PAST SALE,Condo/Co-op,1432 Race St #309,Cincinnati,OH,45202
PAST SALE,Condo/Co-op,1420 Elm St Unit 3B,Cincinnati,OH,45202
PAST SALE,Condo/Co-op,116 W Fifteenth St #206,Cincinnati,OH,45202
PAST SALE,Condo/Co-op,11 E Court St #303,Cincinnati,OH,45202
PAST SALE,Condo/Co-op,14 W Fourteenth St #403,Cincinnati,OH,45202
PAST SALE,Single Family Residential,1716 Republic St,Cincinnati,OH,45202
PAST SALE,Single Family Residential,1718 Republic St,Cincinnati,OH,45202
PAST SALE,Condo/Co-op,213 Kemp Aly,Cincinnati,OH,45202
PAST SALE,Single Family Residential,1720 Republic St,Cincinnati,OH,45052
PAST SALE,Condo/Co-op,825 Main St #2,Cincinnati,OH,45202
PAST SALE,Condo/Co-op,1328 Republic St #301,Cincinnati,OH,45202
PAST SALE,Condo/Co-op,18 E 4th St #701,Cincinnati,OH,45202
PAST SALE,Condo/Co-op,14 W Fourteenth St #502,Cincinnati,OH,45202
PAST SALE,Condo/Co-op,11 E Court St #203,Cincinnati,OH,45202
PAST SALE,Condo/Co-op,13 W 15th St,Cincinnati,OH,45202
PAST SALE,Condo/Co-op,33 E Court St #201,Cincinnati,OH,45202
PAST SALE,Vacant Land,28 Findlay St,Cincinnati,OH,45202
PAST SALE,Condo/Co-op,1213 Vine St Unit I,Cincinnati,OH,45202
PAST SALE,Condo/Co-op,13 W Fifteenth St Unit A5,Cincinnati,OH,45202
PAST SALE,Single Family Residential,15 Mercer St,Cincinnati,OH,45202
PAST SALE,Condo/Co-op,1415 Vine St #101,Cincinnati,OH,45202
PAST SALE,Condo/Co-op,1331 Vine St #8,Cincinnati,OH,45202
PAST SALE,Condo/Co-op,1515 Race St #303,Cincinnati,OH,45202
PAST SALE,Condo/Co-op,911 Race St #3,Cincinnati,OH,45202
PAST SALE,Condo/Co-op,1211 Republic St Unit 301C,Cincinnati,OH,45202
PAST SALE,Condo/Co-op,116 W Fifteenth St #201,Cincinnati,OH,45202
PAST SALE,Condo/Co-op,5 W Twelfth St #1,Cincinnati,OH,45202
PAST SALE,Condo/Co-op,26 E Sixth St #402,Cincinnati,OH,45202
PAST SALE,Condo/Co-op,1403 Race St #2,Cincinnati,OH,45202
PAST SALE,Condo/Co-op,33 E Court St #303,Cincinnati,OH,45202
PAST SALE,Condo/Co-op,11 E Court St #202,Cincinnati,OH,45202
PAST SALE,Condo/Co-op,33 E Court St #402,Cincinnati,OH,45202
PAST SALE,Condo/Co-op,1407 Vine St #401,Cincinnati,OH,45202
PAST SALE,Condo/Co-op,417 Vine St #202,Cincinnati,OH,45202
PAST SALE,Condo/Co-op,14 W Fourteenth St #401,Cincinnati,OH,45202
PAST SALE,Condo/Co-op,112 E 13th St #5,Cincinnati,OH,45202
PAST SALE,Condo/Co-op,15 W Fourth St #504,Cincinnati,OH,45202
PAST SALE,Condo/Co-op,1418 Race St #4,Cincinnati,OH,45202
PAST SALE,Condo/Co-op,1237 Vine St #4,Cincinnati,OH,45202
PAST SALE,Condo/Co-op,26 W Fifteenth St Unit 6F,Cincinnati,OH,45202
PAST SALE,Condo/Co-op,30 E Central Pkwy #1201,Cincinnati,OH,45202
PAST SALE,Condo/Co-op,1232 Vine St #6,Cincinnati,OH,45202
PAST SALE,Condo/Co-op,30 East Central Pkwy #701,Cincinnati,OH,45202
PAST SALE,Multi-Family (2-4 Unit),12 Green St,Cincinnati,OH,45202
PAST SALE,Condo/Co-op,15 W Fourth St #211,Cincinnati,OH,45202
PAST SALE,Condo/Co-op,1150 Vine St #41,Cincinnati,OH,45202
PAST SALE,Condo/Co-op,116 W Fifteenth St #204,Cincinnati,OH,45202
PAST SALE,Condo/Co-op,30 East Central Pkwy #502,Cincinnati,OH,45202
PAST SALE,Condo/Co-op,183 Palisades Pointe #3,Cincinnati,OH,45238
PAST SALE,Condo/Co-op,5 W Twelfth St #2,Cincinnati,OH,45202
PAST SALE,Condo/Co-op,1338 Vine St Unit C,Cincinnati,OH,45202
PAST SALE,Condo/Co-op,33 E Court St #404,Cincinnati,OH,45202
PAST SALE,Condo/Co-op,1232 Vine St #9,Cincinnati,OH,45202
PAST SALE,Condo/Co-op,26 E Sixth St #303,Cincinnati,OH,45202
PAST SALE,Condo/Co-op,915 Vine St #202,Cincinnati,OH,45202
PAST SALE,Condo/Co-op,1150 Vine St #35,Cincinnati,OH,45202
PAST SALE,Condo/Co-op,15 W 4th St #509,Cincinnati,OH,45202
PAST SALE,Condo/Co-op,1509 Race St #305,Cincinnati,OH,45202
PAST SALE,Condo/Co-op,1201 Vine St Unit D,Cincinnati,OH,45202
PAST SALE,Single Family Residential,1406 Pleasant St,Cincinnati,OH,45202
PAST SALE,Condo/Co-op,116 W 15th St #305,Cincinnati,OH,45202
PAST SALE,Condo/Co-op,26 W Fifteenth St Unit 1F,Cincinnati,OH,45202
PAST SALE,Multi-Family (2-4 Unit),1717 Vine St,Cincinnati,OH,45202
PAST SALE,Condo/Co-op,1418 Race St,Cincinnati,OH,45202
PAST SALE,Townhouse,1223 Jackson St #1,Cincinnati,OH,45202
PAST SALE,Condo/Co-op,1403 Vine St #2,Cincinnati,OH,45202
PAST SALE,Condo/Co-op,15 W Fourth St #415,Cincinnati,OH,45202
PAST SALE,Condo/Co-op,1501 Vine St #302,Cincinnati,OH,45202
PAST SALE,Condo/Co-op,30 E Central Pkwy #1203,Cincinnati,OH,45202
PAST SALE,Condo/Co-op,1202 Main St #12,Cincinnati,OH,45202
PAST SALE,Condo/Co-op,33 E Thirteenth St #401,Cincinnati,OH,45202
PAST SALE,Condo/Co-op,1432 Race St #305,Cincinnati,OH,45202
PAST SALE,Single Family Residential,1329 Republic St,Cincinnati,OH,45202
PAST SALE,Condo/Co-op,26 E 6th St #603,Cincinnati,OH,45202
PAST SALE,Condo/Co-op,30 E Central Pkwy #702,Cincinnati,OH,45202
PAST SALE,Single Family Residential,219 W Fifteenth St,Cincinnati,OH,45202
PAST SALE,Condo/Co-op,1505 Race St #301,Cincinnati,OH,45202
PAST SALE,Condo/Co-op,1508 Race St Unit 4R,Cincinnati,OH,45202
PAST SALE,Condo/Co-op,18 W Thirteenth St #7,Cincinnati,OH,45202
PAST SALE,Condo/Co-op,1237 Vine St #3,Cincinnati,OH,45202
PAST SALE,Condo/Co-op,1202 Main St #1,Cincinnati,OH,45202
PAST SALE,Condo/Co-op,1207 Republic St Unit 201B,Cincinnati,OH,45202
PAST SALE,Condo/Co-op,1407 Vine St #303,Cincinnati,OH,45202
PAST SALE,Condo/Co-op,1908 Dunlap St Unit 1W,Cincinnati,OH,45214
PAST SALE,Condo/Co-op,15 W Fourth St #205,Cincinnati,OH,45202
PAST SALE,Condo/Co-op,1509 Pleasant St #155,Cincinnati,OH,45202
PAST SALE,Condo/Co-op,33 E Court St #204,Cincinnati,OH,45202
PAST SALE,Condo/Co-op,1326 Vine St #7,Cincinnati,OH,45202
PAST SALE,Condo/Co-op,1222 Republic St #3,Cincinnati,OH,45202
PAST SALE,Condo/Co-op,131 W Fifteenth St Unit 4B,Cincinnati,OH,45202
PAST SALE,Condo/Co-op,11 E Court St #304,Cincinnati,OH,45202
PAST SALE,Single Family Residential,1409 Republic St,Cincinnati,OH,45202
PAST SALE,Multi-Family (2-4 Unit),632 Race St,Cincinnati,OH,45202
PAST SALE,Condo/Co-op,15 W Fourth St #210,Cincinnati,OH,45202
PAST SALE,Single Family Residential,1508 Race St Unit 3R,Cincinnati,OH,45202
PAST SALE,Condo/Co-op,15 W Fourth St #304,Cincinnati,OH,45202
PAST SALE,Condo/Co-op,11 E Court St #302,Cincinnati,OH,45202
PAST SALE,Condo/Co-op,1214 Vine St #9,Cincinnati,OH,45202
PAST SALE,Condo/Co-op,215 Wade St #6,Cincinnati,OH,45202
PAST SALE,Townhouse,13 Mercer St,Cincinnati,OH,45202
PAST SALE,Condo/Co-op,110 E Thirteenth St,Cincinnati,OH,45202
PAST SALE,Condo/Co-op,1207 Vine St Unit E,Cincinnati,OH,45202
PAST SALE,Condo/Co-op,1415 Vine St #201,Cincinnati,OH,45202
PAST SALE,Townhouse,1307 Republic St,Cincinnati,OH,45202
PAST SALE,Condo/Co-op,15 W Fourth St #213,Cincinnati,OH,45202
PAST SALE,Condo/Co-op,1150 Vine St #25,Cincinnati,OH,45202
PAST SALE,Condo/Co-op,915 Vine St #303,Cincinnati,OH,45202
PAST SALE,Condo/Co-op,1523 Republic St #301,Cincinnati,OH,45202
PAST SALE,Condo/Co-op,1326 Vine St Unit A,Cincinnati,OH,45202
PAST SALE,Multi-Family (2-4 Unit),1213 Elm St,Cincinnati,OH,45202
PAST SALE,Condo/Co-op,633 Main St #3,Cincinnati,OH,45202
PAST SALE,Condo/Co-op,1415 Vine St #303,Cincinnati,OH,45202
PAST SALE,Condo/Co-op,15 W Fourth St #410,Cincinnati,OH,45202
PAST SALE,Single Family Residential,1325 Republic St,Cincinnati,OH,45202
PAST SALE,Single Family Residential,1118 Race St,Cincinnati,OH,45202
PAST SALE,Condo/Co-op,1422 Race St #7,Cincinnati,OH,45202
PAST SALE,Condo/Co-op,26 W Fifteenth St Unit 5F,Cincinnati,OH,45202
PAST SALE,Condo/Co-op,5 W Twelfth St #8,Cincinnati,OH,45202
PAST SALE,Condo/Co-op,1222 Republic St #8,Cincinnati,OH,45202
PAST SALE,Single Family Residential,1302 Main St,Cincinnati,OH,45202
PAST SALE,Condo/Co-op,724 Main St #4,Cincinnati,OH,45202
PAST SALE,Condo/Co-op,1422 Race St #6,Cincinnati,OH,45202
PAST SALE,Condo/Co-op,15 E Court St #2,Cincinnati,OH,45202
PAST SALE,Condo/Co-op,1232 Vine St #7,Cincinnati,OH,45202
PAST SALE,Condo/Co-op,915 Vine St #301,Cincinnati,OH,45202
PAST SALE,Condo/Co-op,1331 Vine St #3,Cincinnati,OH,45202
PAST SALE,Condo/Co-op,1432 Race St #311,Cincinnati,OH,45202
PAST SALE,Condo/Co-op,5 W Twelfth St #6,Cincinnati,OH,45202
PAST SALE,Condo/Co-op,118 W 15th St,Cincinnati,OH,45202
PAST SALE,Single Family Residential,1705 Pleasant St,Cincinnati,OH,45202
PAST SALE,Condo/Co-op,21 Mercer St #2,Cincinnati,OH,45202
PAST SALE,Condo/Co-op,1150 Vine St #12,Cincinnati,OH,45202
PAST SALE,Condo/Co-op,33 E Court St #202,Cincinnati,OH,45202
PAST SALE,Condo/Co-op,14 W 14th St #101,Cincinnati,OH,45202
PAST SALE,Condo/Co-op,1508 Race St Unit 2R,Cincinnati,OH,45202
PAST SALE,Condo/Co-op,26 E Sixth St #404,Cincinnati,OH,45202
PAST SALE,Condo/Co-op,26 E Sixth St #505,Cincinnati,OH,45202
PAST SALE,Condo/Co-op,1207 Republic St Unit 102B,Cincinnati,OH,45202
PAST SALE,Condo/Co-op,1307 Republic St #4,Cincinnati,OH,45202
PAST SALE,Condo/Co-op,26 E 6th St #202,Cincinnati,OH,45202
PAST SALE,Condo/Co-op,15 W Fourth St #403,Cincinnati,OH,45202
PAST SALE,Condo/Co-op,19 W Court St,Cincinnati,OH,45202
PAST SALE,Single Family Residential,1614 Elm St,Cincinnati,OH,45202
PAST SALE,Condo/Co-op,1328 Republic St #302,Cincinnati,OH,45202
PAST SALE,Condo/Co-op,1237 Vine St #5,Cincinnati,OH,45202
PAST SALE,Condo/Co-op,1432 Race St #302,Cincinnati,OH,45202
PAST SALE,Condo/Co-op,11 E Court St #301,Cincinnati,OH,45202
PAST SALE,Condo/Co-op,104 W Ninth St Unit 4B,Cincinnati,OH,45202
PAST SALE,Condo/Co-op,1222 Republic St #6,Cincinnati,OH,45202
PAST SALE,Condo/Co-op,1201 Vine St Unit F,Cincinnati,OH,45202
PAST SALE,Condo/Co-op,26 E Sixth St #501,Cincinnati,OH,45202
PAST SALE,Single Family Residential,1822 Logan St,Cincinnati,OH,45202
PAST SALE,Condo/Co-op,1509 Race St #206,Cincinnati,OH,45202
PAST SALE,Condo/Co-op,36 E Court St #206,Cincinnati,OH,45202
PAST SALE,Multi-Family (2-4 Unit),1909 Race St,Cincinnati,OH,45202
PAST SALE,Condo/Co-op,1408 Elm St #3,Cincinnati,OH,45202
PAST SALE,Condo/Co-op,633 Main St #4,Cincinnati,OH,45202
PAST SALE,Condo/Co-op,1232 Vine St #3,Cincinnati,OH,45202
PAST SALE,Condo/Co-op,1326 Vine St Unit B,Cincinnati,OH,45202
PAST SALE,Condo/Co-op,1214 Vine St #12,Cincinnati,OH,45202
PAST SALE,Condo/Co-op,116 W Fifteenth St #205,Cincinnati,OH,45202
PAST SALE,Condo/Co-op,1207 Vine St Unit D,Cincinnati,OH,45202
PAST SALE,Condo/Co-op,637 Walnut St #2,Cincinnati,OH,45202
PAST SALE,Single Family Residential,219 Magnolia St,Cincinnati,OH,45202
PAST SALE,Condo/Co-op,1150 Vine St #23,Cincinnati,OH,45202
PAST SALE,Single Family Residential,1501 Elm St,Cincinnati,OH,45202
PAST SALE,Condo/Co-op,1408 Elm St #2,Cincinnati,OH,45202
PAST SALE,Condo/Co-op,1415 Vine St #401,Cincinnati,OH,45202
PAST SALE,Condo/Co-op,1214 Vine St #1,Cincinnati,OH,45202
PAST SALE,Condo/Co-op,1432 Race St #209,Cincinnati,OH,45202
PAST SALE,Condo/Co-op,1202 Main St #14,Cincinnati,OH,45202
PAST SALE,Condo/Co-op,30 East Central Pkwy #302,Cincinnati,OH,45202
PAST SALE,Single Family Residential,1406 Elm St,Cincinnati,OH,45202
PAST SALE,Single Family Residential,1510 Pleasant St,Cincinnati,OH,45202
PAST SALE,Condo/Co-op,20 W Twelfth St #22,Cincinnati,OH,45202
PAST SALE,Condo/Co-op,1516 Pleasant St,Cincinnati,OH,45202
PAST SALE,Condo/Co-op,1237 Vine St #2,Cincinnati,OH,45202
PAST SALE,Condo/Co-op,20 W Twelfth St #301,Cincinnati,OH,45202
PAST SALE,Condo/Co-op,1150 Vine St #16,Cincinnati,OH,45202
PAST SALE,Condo/Co-op,215 Wade St #8,Cincinnati,OH,45202
PAST SALE,Condo/Co-op,1214 Vine St #5,Cincinnati,OH,45202
PAST SALE,Townhouse,15 E Court St #4,Cincinnati,OH,45202
PAST SALE,Condo/Co-op,1501 Vine St #201,Cincinnati,OH,45202
PAST SALE,Condo/Co-op,911 Race St #4,Cincinnati,OH,45202
PAST SALE,Condo/Co-op,50 E Court St #207,Cincinnati,OH,45202
PAST SALE,Condo/Co-op,1003 Walnut St #309,Cincinnati,OH,45202
PAST SALE,Condo/Co-op,13 W Fifteenth St Unit A2,Cincinnati,OH,45202
PAST SALE,Condo/Co-op,1432 Race St #207,Cincinnati,OH,45202
PAST SALE,Condo/Co-op,1512 Pleasant St,Cincinnati,OH,45202
PAST SALE,Condo/Co-op,15 W Fourth St Unit 414W,Cincinnati,OH,45202
PAST SALE,Condo/Co-op,15 W Fourth St #505,Cincinnati,OH,45202
PAST SALE,Condo/Co-op,33 E Thirteenth St #301,Cincinnati,OH,45202
PAST SALE,Condo/Co-op,32 E Court St #203,Cincinnati,OH,45202
PAST SALE,Condo/Co-op,26 E Sixth St #604,Cincinnati,OH,45202
PAST SALE,Condo/Co-op,915 Vine St #201,Cincinnati,OH,45202
PAST SALE,Townhouse,1124 Race St Unit 201B,Cincinnati,OH,45202
PAST SALE,Condo/Co-op,11 E Court St #201,Cincinnati,OH,45202
PAST SALE,Condo/Co-op,23 Mercer St #2,Cincinnati,OH,45202
PAST SALE,Single Family Residential,1433 Pleasant St,Cincinnati,OH,45202
PAST SALE,Condo/Co-op,1150 Vine St #37,Cincinnati,OH,45202
PAST SALE,Condo/Co-op,1428 Republic St,Cincinnati,OH,45202
PAST SALE,Condo/Co-op,104 W Ninth St Unit 6C,Cincinnati,OH,45202
PAST SALE,Condo/Co-op,30 E Central Pkwy #903,Cincinnati,OH,45202
PAST SALE,Condo/Co-op,1515 Race St #301,Cincinnati,OH,45202
PAST SALE,Multi-Family (2-4 Unit),1412 Elm St,Cincinnati,OH,45202
PAST SALE,Condo/Co-op,215 Wade St #7,Cincinnati,OH,45202
PAST SALE,Condo/Co-op,108 W Ninth St Unit 1C,Cincinnati,OH,45202
PAST SALE,Condo/Co-op,1150 Vine St #28,Cincinnati,OH,45202
PAST SALE,Condo/Co-op,1214 Vine St #8,Cincinnati,OH,45202
PAST SALE,Condo/Co-op,18 W Thirteenth St #8,Cincinnati,OH,45202
PAST SALE,Condo/Co-op,1214 Vine St #10,Cincinnati,OH,45202
PAST SALE,Single Family Residential,218 W Fifteenth St,Cincinnati,OH,45202
PAST SALE,Condo/Co-op,1122 Race St Unit 201A,Cincinnati,OH,45202
PAST SALE,Condo/Co-op,1003 Walnut St #310,Cincinnati,OH,45202
PAST SALE,Condo/Co-op,1206 Main St #4,Cincinnati,OH,45202
PAST SALE,Condo/Co-op,215 Wade St #3,Cincinnati,OH,45202
PAST SALE,Townhouse,1407 Vine St #203,Cincinnati,OH,45202
PAST SALE,Condo/Co-op,116 W Fifteenth St #203,Cincinnati,OH,45202
PAST SALE,Condo/Co-op,1800 Race St #301,Cincinnati,OH,45202
PAST SALE,Single Family Residential,1509 Elm St,Cincinnati,OH,45202
PAST SALE,Single Family Residential,46 W Mcmicken Ave,Cincinnati,OH,45202
PAST SALE,Condo/Co-op,724 Main St #6,Cincinnati,OH,45202
PAST SALE,Condo/Co-op,27 Mercer St #3,Cincinnati,OH,45202
PAST SALE,Condo/Co-op,1211 Republic St Unit 101C,Cincinnati,OH,45202
PAST SALE,Condo/Co-op,1908 Dunlap St #4,Cincinnati,OH,45214
PAST SALE,Condo/Co-op,1415 Vine St,Cincinnati,OH,45202
PAST SALE,Condo/Co-op,1213 Vine St Unit G,Cincinnati,OH,45202
PAST SALE,Condo/Co-op,122 W Fifteenth St #223,Cincinnati,OH,45202
PAST SALE,Condo/Co-op,19 W Court St #3,Cincinnati,OH,45202
PAST SALE,Condo/Co-op,15 W Fifteenth St Unit B3,Cincinnati,OH,45202
PAST SALE,Condo/Co-op,133 W Elder St #2,Cincinnati,OH,45202
PAST SALE,Condo/Co-op,14 W Fourteenth St #301,Cincinnati,OH,45202
PAST SALE,Condo/Co-op,1150 Vine St #27,Cincinnati,OH,45202
PAST SALE,Condo/Co-op,15 W Fourth St #203,Cincinnati,OH,45202
PAST SALE,Condo/Co-op,1232 Vine St #1,Cincinnati,OH,45202
PAST SALE,Condo/Co-op,1432 Race St #103,Cincinnati,OH,45202
PAST SALE,Condo/Co-op,1003 Walnut St #209,Cincinnati,OH,45202
PAST SALE,Condo/Co-op,1415 Vine St #404,Cincinnati,OH,45202
PAST SALE,Condo/Co-op,1908 Dunlap St #5,Cincinnati,OH,45214
PAST SALE,Condo/Co-op,915 Vine St #302,Cincinnati,OH,45202
PAST SALE,Condo/Co-op,30 East Central Pkwy #401,Cincinnati,OH,45202
PAST SALE,Condo/Co-op,1501 Vine St #304,Cincinnati,OH,45202
PAST SALE,Condo/Co-op,621 Main St Unit 4B,Cincinnati,OH,45202
PAST SALE,Condo/Co-op,15 W Fourth St #604,Cincinnati,OH,45202
PAST SALE,Condo/Co-op,1509 Race St #307,Cincinnati,OH,45202
PAST SALE,Condo/Co-op,1501 Vine St #403,Cincinnati,OH,45202
PAST SALE,Single Family Residential,227 Magnolia St,Cincinnati,OH,45202
PAST SALE,Condo/Co-op,637 Walnut St #7,Cincinnati,OH,45202
PAST SALE,Condo/Co-op,1415 Vine St #307,Cincinnati,OH,45202
PAST SALE,Condo/Co-op,1222 Republic St #4,Cincinnati,OH,45202
PAST SALE,Condo/Co-op,1222 Republic St #7,Cincinnati,OH,45202
PAST SALE,Condo/Co-op,11 E Court St #401,Cincinnati,OH,45202
PAST SALE,Condo/Co-op,17 Mercer St,Cincinnati,OH,45202
PAST SALE,Multi-Family (2-4 Unit),1207 Elm St,Cincinnati,OH,45202
PAST SALE,Condo/Co-op,1508 Race St Unit 5R,Cincinnati,OH,45202
PAST SALE,Condo/Co-op,1418 Race St #3,Cincinnati,OH,45202
PAST SALE,Single Family Residential,9 Mercer St,Cincinnati,OH,45202
PAST SALE,Condo/Co-op,621 Main St Unit 3A,Cincinnati,OH,45202
PAST SALE,Condo/Co-op,50 E Court St #408,Cincinnati,OH,45202
PAST SALE,Condo/Co-op,1223 Jackson St,Cincinnati,OH,45202
PAST SALE,Single Family Residential,1615-16-1617 Pleasant St,Cincinnati,OH,45202
PAST SALE,Condo/Co-op,1517 Elm St Unit A,Cincinnati,OH,45202
PAST SALE,Condo/Co-op,1824 Elm St #1,Cincinnati,OH,45202
PAST SALE,Condo/Co-op,15 W Fourth St #407,Cincinnati,OH,45202
PAST SALE,Condo/Co-op,1432 Elm St Unit 3A,Cincinnati,OH,45202
PAST SALE,Condo/Co-op,1909 Race St #1,Cincinnati,OH,45202
PAST SALE,Condo/Co-op,30 E Central Pkwy #1003,Cincinnati,OH,45202
PAST SALE,Condo/Co-op,1207 Vine St Unit K,Cincinnati,OH,45202
PAST SALE,Condo/Co-op,1415 Vine St #305,Cincinnati,OH,45202
PAST SALE,Condo/Co-op,1908 Dunlap St #2,Cincinnati,OH,45214
PAST SALE,Condo/Co-op,1 Mercer St #303,Cincinnati,OH,45202
PAST SALE,Condo/Co-op,1202 Main St #3,Cincinnati,OH,45202
PAST SALE,Single Family Residential,1410 Elm St,Cincinnati,OH,45202
MLS Listing,Condo/Co-op,1432 Race St #102,Cincinnati,OH,45202
MLS Listing,Condo/Co-op,1213 Vine St Unit C,Cincinnati,OH,45202
MLS Listing,Condo/Co-op,1421 Race St #5,Cincinnati,OH,45202
MLS Listing,Condo/Co-op,15 W Fourth St #411,Cincinnati,OH,45202
MLS Listing,Condo/Co-op,1 Mercer St #204,Cincinnati,OH,45202
MLS Listing,Multi-Family (2-4 Unit),1622 Pleasant St,Cincinnati,OH,45202
MLS Listing,Single Family Residential,1215 Main St,Cincinnati,OH,45202
MLS Listing,Condo/Co-op,15 W Fourth St #414,Cincinnati,OH,45202
MLS Listing,Condo/Co-op,18 W Thirteenth St #5,Cincinnati,OH,45202
MLS Listing,Condo/Co-op,417 Vine St #204,Cincinnati,OH,45202
MLS Listing,Condo/Co-op,417 Vine St #504,Cincinnati,OH,45202
MLS Listing,Condo/Co-op,20 W Twelfth St #401,Cincinnati,OH,45202
MLS Listing,Condo/Co-op,26 E Sixth St #502,Cincinnati,OH,45202
MLS Listing,Single Family Residential,219 Wade St,Cincinnati,OH,45202
MLS Listing,Condo/Co-op,1418 Race St #1,Cincinnati,OH,45202
MLS Listing,Single Family Residential,2017 Elm St,Cincinnati,OH,45202
MLS Listing,Condo/Co-op,33 E Court St #305,Cincinnati,OH,45202
MLS Listing,Condo/Co-op,1432 Race St #301,Cincinnati,OH,45202
MLS Listing,Condo/Co-op,1510 Race St #7,Cincinnati,OH,45202
MLS Listing,Condo/Co-op,1510 Race St #4,Cincinnati,OH,45202
MLS Listing,Condo/Co-op,1510 Race St #6,Cincinnati,OH,45202
MLS Listing,Condo/Co-op,1510 Race St #5,Cincinnati,OH,45202
MLS Listing,Condo/Co-op,30 E Central Pkwy #1101,Cincinnati,OH,45202
MLS Listing,Condo/Co-op,104 W Ninth St Unit 2C,Cincinnati,OH,45202
MLS Listing,Condo/Co-op,1150 Vine St #15,Cincinnati,OH,45202
MLS Listing,Condo/Co-op,1415 Vine St #403,Cincinnati,OH,45202
MLS Listing,Condo/Co-op,26 W Fifteenth St Unit 3F,Cincinnati,OH,45202
MLS Listing,Condo/Co-op,1150 Vine St #24,Cincinnati,OH,45202
MLS Listing,Condo/Co-op,621 Main St Unit 5A,Cincinnati,OH,45202
MLS Listing,Single Family Residential,1120 Race St,Cincinnati,OH,45202
MLS Listing,Single Family Residential,1414 Pleasant St,Cincinnati,OH,45202
MLS Listing,Multi-Family (2-4 Unit),6 W Mcmicken Ave,Cincinnati,OH,45202
MLS Listing,Condo/Co-op,28 W Central Pkwy #3,Cincinnati,OH,45202
MLS Listing,Condo/Co-op,23 Mercer St #1,Cincinnati,OH,45202
MLS Listing,Condo/Co-op,26 E Sixth St #503,Cincinnati,OH,45202
MLS Listing,Condo/Co-op,1306 Main St #3,Cincinnati,OH,45202
MLS Listing,Multi-Family (2-4 Unit),1826 Logan St,Cincinnati,OH,45202
MLS Listing,Vacant Land,217 Findlay St,Cincinnati,OH,45202
MLS Listing,Multi-Family (5+ Unit),219 Findlay St,Cincinnati,OH,45202
MLS Listing,Condo/Co-op,1202 Main St #6,Cincinnati,OH,45202
MLS Listing,Condo/Co-op,33 E Court St #302,Cincinnati,OH,45202
MLS Listing,Condo/Co-op,5 W Twelfth St #4,Cincinnati,OH,45202
MLS Listing,Vacant Land,1517 Republic St,Cincinnati,OH,45202
MLS Listing,Condo/Co-op,1500 Race St #2,Cincinnati,OH,45202
MLS Listing,Condo/Co-op,1514 Race St #1,Cincinnati,OH,45202
MLS Listing,Condo/Co-op,1514 Race St #2,Cincinnati,OH,45202
MLS Listing,Condo/Co-op,1514 Race St #3,Cincinnati,OH,45202
MLS Listing,Vacant Land,1518 Race St,Cincinnati,OH,45202
MLS Listing,Condo/Co-op,5 W Twelfth St #3,Cincinnati,OH,45202
MLS Listing,Multi-Family (5+ Unit),8 W Fourth St,Cincinnati,OH,45202
MLS Listing,Condo/Co-op,1501 Vine St #303,Cincinnati,OH,45202
MLS Listing,Single Family Residential,212 W Fifteenth St,Cincinnati,OH,45202
